STARLINK-2068
1 17722C 21017A   21326.11458676  .00007143  00000-0  47862-3 0  3264
2 17722  53.0565  38.2289 0001440  72.6371 166.6081 15.06388833    19
